[{"OBJECT_NAME":"YUNHAI-2 01F","OBJECT_ID":"2018-112G","EPOCH":"2026-03-09T22:32:39.167808","MEAN_MOTION":14.28981897,"ECCENTRICITY":0.00070201,"INCLINATION":50.0111,"RA_OF_ASC_NODE":288.9308,"ARG_OF_PERICENTER":341.2274,"MEAN_ANOMALY":18.8381,"EPHEMERIS_TYPE":0,"CLASSIFICATION_TYPE":"U","NORAD_CAT_ID":43915,"ELEMENT_SET_NO":999,"REV_AT_EPOCH":37411,"BSTAR":2.0666219e-5,"MEAN_MOTION_DOT":-1.09e-6,"MEAN_MOTION_DDOT":0},{"OBJECT_NAME":"DMSP 5D-2 F13 DEB","OBJECT_ID":"1995-015AC","EPOCH":"2026-03-09T13:17:51.655776","MEAN_MOTION":14.29127038,"ECCENTRICITY":0.0004464,"INCLINATION":98.7278,"RA_OF_ASC_NODE":95.9381,"ARG_OF_PERICENTER":254.792,"MEAN_ANOMALY":105.2768,"EPHEMERIS_TYPE":0,"CLASSIFICATION_TYPE":"U","NORAD_CAT_ID":40415,"ELEMENT_SET_NO":999,"REV_AT_EPOCH":57181,"BSTAR":0.0010875,"MEAN_MOTION_DOT":2.714e-5,"MEAN_MOTION_DDOT":0}]
